NORAD_CAT_ID,OBJECT_NAME,OBJECT_TYPE,EPOCH,MEAN_MOTION,ECCENTRICITY,INCLINATION,RA_OF_ASC_NODE,ARG_OF_PERICENTER,MEAN_ANOMALY,BSTAR,MEAN_MOTION_DOT,MEAN_MOTION_DDOT,TLE_LINE0,TLE_LINE1,TLE_LINE2,SEMIMAJOR_AXIS,PERIOD,APOGEE,PERIGEE,DECAYED
49756.0,STARLINK-3207,PAYLOAD,2023-03-24 21:56:14,15.08888587,0.0001357,53.2163,310.9091,103.6337,256.4806,0.00080706,0.00012597,0.0,0 STARLINK-3207,1 49756U 21115AJ  23083.91405297  .00012597  00000-0  80706-3 0  9992,2 49756  53.2163 310.9091 0001357 103.6337 256.4806 15.08888587 72519,6917.732,95.434,540.536,538.658,0.0
49756.0,STARLINK-3207,PAYLOAD,2023-03-25 01:06:59,15.08891033,0.000126,53.2167,310.3149,96.3183,263.7953,0.00071773,0.00011169,0.0,0 STARLINK-3207,1 49756U 21115AJ  23084.04652679  .00011169  00000-0  71773-3 0  9993,2 49756  53.2167 310.3149 0001260  96.3183 263.7953 15.08891033 73640,6917.724,95.434,540.461,538.718,0.0
49756.0,STARLINK-3207,PAYLOAD,2023-03-25 21:47:03,15.08809782,0.0001324,53.2171,306.4513,93.0393,267.0751,-0.00076542,-0.00012439,0.0,0 STARLINK-3207,1 49756U 21115AJ  23084.90767991 -.00012439  00000-0 -76542-3 0  9994,2 49756  53.2171 306.4513 0001324  93.0393 267.0751 15.08809782 73771,6917.973,95.439,540.754,538.922,0.0
49756.0,STARLINK-3207,PAYLOAD,2023-03-26 20:02:28,15.08820711,0.0001268,53.2168,302.2869,103.4891,256.6242,-0.00032491,-5.452e-05,0.0,0 STARLINK-3207,1 49756U 21115AJ  23085.83505475 -.00005452  00000-0 -32491-3 0  9996,2 49756  53.2168 302.2869 0001268 103.4891 256.6242 15.08820711 73911,6917.939,95.439,540.682,538.927,0.0
49756.0,STARLINK-3207,PAYLOAD,2023-03-26 21:37:51,15.08824852,0.0001152,53.2164,301.99,87.6596,272.4528,-0.0002709,-4.595e-05,0.0,0 STARLINK-3207,1 49756U 21115AJ  23085.90129342 -.00004595  00000-0 -27090-3 0  9995,2 49756  53.2164 301.9900 0001152  87.6596 272.4528 15.08824852 72817,6917.927,95.439,540.589,538.995,0.0
49756.0,STARLINK-3207,PAYLOAD,2023-03-27 13:31:44,15.08836784,0.000121,53.2169,299.0159,77.1041,283.0086,0.000888,0.00013872,0.0,0 STARLINK-3207,1 49756U 21115AJ  23086.56370608  .00013872  00000-0  88800-3 0  9993,2 49756  53.2169 299.0159 0001210  77.1041 283.0086 15.08836784 72914,6917.89,95.438,540.592,538.918,0.0
49756.0,STARLINK-3207,PAYLOAD,2023-03-27 21:28:39,15.08872232,0.0001156,53.2163,297.5296,74.7207,285.3913,0.0016018,0.00025319,0.0,0 STARLINK-3207,1 49756U 21115AJ  23086.89489897  .00025319  00000-0  16018-2 0  9990,2 49756  53.2163 297.5296 0001156  74.7207 285.3913 15.08872232 74070,6917.782,95.436,540.447,538.847,0.0
49756.0,STARLINK-3207,PAYLOAD,2023-03-28 13:22:29,15.08867137,0.0001402,53.2145,294.5538,83.7819,276.3333,0.00074867,0.00011656,0.0,0 STARLINK-3207,1 49756U 21115AJ  23087.55729047  .00011656  00000-0  74867-3 0  9994,2 49756  53.2145 294.5538 0001402  83.7819 276.3333 15.08867137 73061,6917.797,95.436,540.632,538.693,0.0
49756.0,STARLINK-3207,PAYLOAD,2023-03-28 14:57:52,15.08865886,0.0001314,53.2151,294.2568,85.7097,274.4045,0.00033178,5e-05,0.0,0 STARLINK-3207,1 49756U 21115AJ  23087.62352880  .00005000  00000-0  33178-3 0  9995,2 49756  53.2151 294.2568 0001314  85.7097 274.4045 15.08865886 74182,6917.801,95.436,540.575,538.757,0.0
49756.0,STARLINK-3207,PAYLOAD,2023-03-28 21:19:24,15.08882351,0.0001086,53.216,293.0683,80.9768,279.1347,0.0010862,0.00017061,0.0,0 STARLINK-3207,1 49756U 21115AJ  23087.88848274  .00017061  00000-0  10862-2 0  9994,2 49756  53.2160 293.0683 0001086  80.9768 279.1347 15.08882351 73110,6917.751,95.435,540.367,538.865,0.0
49756.0,STARLINK-3207,PAYLOAD,2023-03-28 22:54:47,15.08880657,0.0001132,53.2158,292.7714,81.8105,278.3015,0.0014776,0.00023332,0.0,0 STARLINK-3207,1 49756U 21115AJ  23087.95472218  .00023332  00000-0  14776-2 0  9999,2 49756  53.2158 292.7714 0001132  81.8105 278.3015 15.08880657 74239,6917.756,95.435,540.404,538.838,0.0
49756.0,STARLINK-3207,PAYLOAD,2023-03-29 19:34:48,15.08856542,9.87e-05,53.2156,288.9054,103.3598,256.7505,0.0015035,0.00023732,0.0,0 STARLINK-3207,1 49756U 21115AJ  23088.81584200  .00023732  00000-0  15035-2 0  9993,2 49756  53.2156 288.9054 0000987 103.3598 256.7505 15.08856542 73255,6917.83,95.437,540.378,539.012,0.0
49756.0,STARLINK-3207,PAYLOAD,2023-03-29 22:45:34,15.08856995,9.99e-05,53.2156,288.3107,98.6034,261.5072,0.0013923,0.0002195,0.0,0 STARLINK-3207,1 49756U 21115AJ  23088.94832119  .00021950  00000-0  13923-2 0  9996,2 49756  53.2156 288.3107 0000999  98.6034 261.5072 15.08856995 74382,6917.828,95.436,540.385,539.002,0.0
49756.0,STARLINK-3207,PAYLOAD,2023-03-30 06:42:30,15.08850309,8.6e-05,53.2154,286.8237,79.5061,280.6028,0.00074526,0.00011596,0.0,0 STARLINK-3207,1 49756U 21115AJ  23089.27952171  .00011596  00000-0  74526-3 0  9996,2 49756  53.2154 286.8237 0000860  79.5061 280.6028 15.08850309 74434,6917.849,95.437,540.309,539.119,0.0
49756.0,STARLINK-3207,PAYLOAD,2023-03-30 17:50:12,15.08854991,0.0001265,53.2157,284.7413,88.93,271.1837,0.00098432,0.00015419,0.0,0 STARLINK-3207,1 49756U 21115AJ  23089.74320269  .00015419  00000-0  98432-3 0  9995,2 49756  53.2157 284.7413 0001265  88.9300 271.1837 15.08854991 73398,6917.835,95.437,540.575,538.824,0.0
49756.0,STARLINK-3207,PAYLOAD,2023-03-30 22:36:22,15.08854738,0.0001323,53.2158,283.8493,85.1882,274.9261,0.0014287,0.00022532,0.0,0 STARLINK-3207,1 49756U 21115AJ  23089.94192260  .00022532  00000-0  14287-2 0  9994,2 49756  53.2158 283.8493 0001323  85.1882 274.9261 15.08854738 74534,6917.835,95.437,540.616,538.785,0.0
49756.0,STARLINK-3207,PAYLOAD,2023-03-31 12:54:50,15.08847971,9.86e-05,53.2164,281.1732,86.6587,273.4518,0.00059741,9.235e-05,0.0,0 STARLINK-3207,1 49756U 21115AJ  23090.53808297  .00009235  00000-0  59741-3 0  9995,2 49756  53.2164 281.1732 0000986  86.6587 273.4518 15.08847971 74620,6917.856,95.437,540.403,539.039,0.0
49756.0,STARLINK-3207,PAYLOAD,2023-04-01 12:45:37,15.08833375,9.28e-05,53.2167,276.7136,88.8349,271.2749,0.00051906,7.981e-05,0.0,0 STARLINK-3207,1 49756U 21115AJ  23091.53168833  .00007981  00000-0  51906-3 0  9992,2 49756  53.2167 276.7136 0000928  88.8349 271.2749 15.08833375 74778,6917.901,95.438,540.408,539.124,0.0
49756.0,STARLINK-3207,PAYLOAD,2023-04-01 19:07:10,15.08835846,0.0001105,53.2164,275.5236,99.308,260.8037,0.0007251,0.0001127,0.0,0 STARLINK-3207,1 49756U 21115AJ  23091.79665038  .00011270  00000-0  72510-3 0  9999,2 49756  53.2164 275.5236 0001105  99.3080 260.8037 15.08835846 73701,6917.893,95.438,540.523,538.994,0.0
49756.0,STARLINK-3207,PAYLOAD,2023-04-02 12:36:24,15.08864729,8.96e-05,53.2162,272.2525,96.3025,263.8069,0.0012216,0.0001922,0.0,0 STARLINK-3207,1 49756U 21115AJ  23092.52528436  .00019220  00000-0  12216-2 0  9990,2 49756  53.2162 272.2525 0000896  96.3025 263.8069 15.08864729 73818,6917.805,95.436,540.29,539.05,0.0
49756.0,STARLINK-3207,PAYLOAD,2023-04-02 20:33:19,15.08886815,0.0001057,53.2161,270.7663,91.6617,268.4496,0.0013217,0.00020836,0.0,0 STARLINK-3207,1 49756U 21115AJ  23092.85647441  .00020836  00000-0  13217-2 0  9991,2 49756  53.2161 270.7663 0001057  91.6617 268.4496 15.08886815 74971,6917.737,95.435,540.334,538.871,0.0
49756.0,STARLINK-3207,PAYLOAD,2023-04-03 04:30:15,15.0886168,0.0002224,53.216,269.2802,72.7314,287.3922,0.00072462,0.0001127,0.0,0 STARLINK-3207,1 49756U 21115AJ  23093.18767915  .00011270  00000-0  72462-3 0  9997,2 49756  53.2160 269.2802 0002224  72.7314 287.3922 15.08861680 75023,6917.814,95.436,541.218,538.141,0.0
49756.0,STARLINK-3207,PAYLOAD,2023-04-03 12:27:11,15.08825419,0.0001213,53.2157,267.7924,75.8696,284.243,4.9211e-05,4.95e-06,0.0,0 STARLINK-3207,1 49756U 21115AJ  23093.51888209  .00000495  00000-0  49211-4 0  9998,2 49756  53.2157 267.7924 0001213  75.8696 284.2430 15.08825419 75076,6917.925,95.438,540.629,538.951,0.0
49756.0,STARLINK-3207,PAYLOAD,2023-04-03 20:24:07,15.08824709,0.0001249,53.2156,266.3057,62.272,297.8398,0.0015539,0.00024518,0.0,0 STARLINK-3207,1 49756U 21115AJ  23093.85008734  .00024518  00000-0  15539-2 0  9998,2 49756  53.2156 266.3057 0001249  62.2720 297.8398 15.08824709 74011,6917.927,95.439,540.656,538.928,0.0
49756.0,STARLINK-3207,PAYLOAD,2023-04-04 12:17:59,15.088456,0.0001291,53.2157,263.3317,67.3108,292.8021,0.0012852,0.00020228,0.0,0 STARLINK-3207,1 49756U 21115AJ  23094.51249071  .00020228  00000-0  12852-2 0  9992,2 49756  53.2157 263.3317 0001291  67.3108 292.8021 15.08845600 74113,6917.863,95.437,540.621,538.835,0.0
49756.0,STARLINK-3207,PAYLOAD,2023-04-04 20:14:54,15.08859904,0.0001332,53.2154,261.845,63.535,296.5779,0.001335,0.00021034,0.0,0 STARLINK-3207,1 49756U 21115AJ  23094.84368738  .00021034  00000-0  13350-2 0  9990,2 49756  53.2154 261.8450 0001332  63.5350 296.5779 15.08859904 75275,6917.82,95.436,540.606,538.763,0.0
49756.0,STARLINK-3207,PAYLOAD,2023-04-05 12:08:46,15.08841009,0.0001071,53.2155,258.8707,77.9188,282.1924,0.0013637,0.00021482,0.0,0 STARLINK-3207,1 49756U 21115AJ  23095.50609152  .00021482  00000-0  13637-2 0  9997,2 49756  53.2155 258.8707 0001071  77.9188 282.1924 15.08841009 74263,6917.877,95.437,540.483,539.001,0.0
49756.0,STARLINK-3207,PAYLOAD,2023-04-05 16:54:55,15.08842937,0.0001111,53.2175,257.9793,64.6161,295.4946,0.0013741,0.0002165,0.0,0 STARLINK-3207,1 49756U 21115AJ  23095.70481312  .00021650  00000-0  13741-2 0  9998,2 49756  53.2175 257.9793 0001111  64.6161 295.4946 15.08842937 75408,6917.871,95.437,540.505,538.968,0.0
49756.0,STARLINK-3207,PAYLOAD,2023-04-05 18:30:18,15.08841776,0.0001189,53.2158,257.6813,70.3105,289.8015,0.0010994,0.00017253,0.0,0 STARLINK-3207,1 49756U 21115AJ  23095.77105297  .00017253  00000-0  10994-2 0  9991,2 49756  53.2158 257.6813 0001189  70.3105 289.8015 15.08841776 74308,6917.875,95.437,540.562,538.917,0.0
49756.0,STARLINK-3207,PAYLOAD,2023-04-06 10:24:10,15.08837823,0.0001336,53.216,254.7088,73.6893,286.4246,0.00035271,5.33e-05,0.0,0 STARLINK-3207,1 49756U 21115AJ  23096.43345579  .00005330  00000-0  35271-3 0  9993,2 49756  53.2160 254.7088 0001336  73.6893 286.4246 15.08837823 75518,6917.887,95.438,540.676,538.828,0.0
